{
  "type": "FeatureCollection",
  "features": [
    {
      "type": "Feature",
      "properties": {
        "norad_id": 30701,
        "name": "FENGYUN 1C DEB",
        "group": "fengyun-1c-debris",
        "lat": 16.163060744377667,
        "lon": -155.06587170210753,
        "alt_km": 828.2148077133788,
        "timestamp": "2025-12-06T22:38:43.006425+00:00",
        "meta_object_name": "FENGYUN 1C DEB",
        "meta_object_id": "1999-025ARK",
        "meta_epoch": "2025-12-06T08:53:31.580160",
        "meta_mean_motion": 14.13933923,
        "meta_eccentricity": 0.00356152,
        "meta_inclination": 98.7192,
        "meta_ra_of_asc_node": 21.826,
        "meta_arg_of_pericenter": 120.3924,
        "meta_mean_anomaly": 7.5755,
        "meta_ephemeris_type": 0,
        "meta_classification_type": "U",
        "meta_norad_cat_id": 30701,
        "meta_element_set_no": 999,
        "meta_rev_at_epoch": 97029,
        "meta_bstar": 3.5009205e-05,
        "meta_mean_motion_dot": 2.4e-07,
        "meta_mean_motion_ddot": 0,
        "tle_line1": "1 30701U 99025ARK 25340.37050440  .00000024  00000+0  35009-4 0  9999",
        "tle_line2": "2 30701  98.7192  21.8260 0035615 120.3924   7.5755 14.13933923970293"
      },
      "geometry": {
        "type": "Point",
        "coordinates": [
          -155.06587170210753,
          16.163060744377667
        ]
      }
    },
    {
      "type": "Feature",
      "properties": {
        "norad_id": 30702,
        "name": "FENGYUN 1C DEB",
        "group": "fengyun-1c-debris",
        "lat": -37.13077345722215,
        "lon": 7.70203485112898,
        "alt_km": 838.1718906075139,
        "timestamp": "2025-12-06T22:38:43.006435+00:00",
        "meta_object_name": "FENGYUN 1C DEB",
        "meta_object_id": "1999-025ARL",
        "meta_epoch": "2025-12-06T14:52:14.533824",
        "meta_mean_motion": 14.0357092,
        "meta_eccentricity": 0.00684625,
        "meta_inclination": 98.7703,
        "meta_ra_of_asc_node": 0.6774,
        "meta_arg_of_pericenter": 319.2511,
        "meta_mean_anomaly": 167.2257,
        "meta_ephemeris_type": 0,
        "meta_classification_type": "U",
        "meta_norad_cat_id": 30702,
        "meta_element_set_no": 999,
        "meta_rev_at_epoch": 96076,
        "meta_bstar": 0.0011467966,
        "meta_mean_motion_dot": 1.794e-05,
        "meta_mean_motion_ddot": 0,
        "tle_line1": "1 30702U 99025ARL 25340.61961266  .00001794  00000+0  11468-2 0  9990",
        "tle_line2": "2 30702  98.7703   0.6774 0068462 319.2511 167.2257 14.03570920960769"
      },
      "geometry": {
        "type": "Point",
        "coordinates": [
          7.70203485112898,
          -37.13077345722215
        ]
      }
    },
    {
      "type": "Feature",
      "properties": {
        "norad_id": 30703,
        "name": "FENGYUN 1C DEB",
        "group": "fengyun-1c-debris",
        "lat": 78.52110450299102,
        "lon": -161.7515055970824,
        "alt_km": 892.6247033407226,
        "timestamp": "2025-12-06T22:38:43.006445+00:00",
        "meta_object_name": "FENGYUN 1C DEB",
        "meta_object_id": "1999-025ARM",
        "meta_epoch": "2025-12-06T11:03:52.147008",
        "meta_mean_motion": 14.19273515,
        "meta_eccentricity": 0.01180881,
        "meta_inclination": 99.1415,
        "meta_ra_of_asc_node": 325.2905,
        "meta_arg_of_pericenter": 309.9391,
        "meta_mean_anomaly": 202.2171,
        "meta_ephemeris_type": 0,
        "meta_classification_type": "U",
        "meta_norad_cat_id": 30703,
        "meta_element_set_no": 999,
        "meta_rev_at_epoch": 96451,
        "meta_bstar": 0.0023633359,
        "meta_mean_motion_dot": 5.27e-05,
        "meta_mean_motion_ddot": 0,
        "tle_line1": "1 30703U 99025ARM 25340.46102022  .00005270  00000+0  23633-2 0  9991",
        "tle_line2": "2 30703  99.1415 325.2905 0118088 309.9391 202.2171 14.19273515964518"
      },
      "geometry": {
        "type": "Point",
        "coordinates": [
          -161.7515055970824,
          78.52110450299102
        ]
      }
    },
    {
      "type": "Feature",
      "properties": {
        "norad_id": 30704,
        "name": "FENGYUN 1C DEB",
        "group": "fengyun-1c-debris",
        "lat": 37.19980660997548,
        "lon": -26.967716563024414,
        "alt_km": 871.2244402901342,
        "timestamp": "2025-12-06T22:38:43.006455+00:00",
        "meta_object_name": "FENGYUN 1C DEB",
        "meta_object_id": "1999-025ARN",
        "meta_epoch": "2025-12-06T11:12:09.385056",
        "meta_mean_motion": 14.02036006,
        "meta_eccentricity": 0.00816601,
        "meta_inclination": 98.871,
        "meta_ra_of_asc_node": 339.3764,
        "meta_arg_of_pericenter": 117.1595,
        "meta_mean_anomaly": 36.4404,
        "meta_ephemeris_type": 0,
        "meta_classification_type": "U",
        "meta_norad_cat_id": 30704,
        "meta_element_set_no": 999,
        "meta_rev_at_epoch": 96023,
        "meta_bstar": 0.00062118897,
        "meta_mean_motion_dot": 9.34e-06,
        "meta_mean_motion_ddot": 0,
        "tle_line1": "1 30704U 99025ARN 25340.46677529  .00000934  00000+0  62119-3 0  9996",
        "tle_line2": "2 30704  98.8710 339.3764 0081660 117.1595  36.4404 14.02036006960237"
      },
      "geometry": {
        "type": "Point",
        "coordinates": [
          -26.967716563024414,
          37.19980660997548
        ]
      }
    },
    {
      "type": "Feature",
      "properties": {
        "norad_id": 30705,
        "name": "FENGYUN 1C DEB",
        "group": "fengyun-1c-debris",
        "lat": 16.566029806201037,
        "lon": -92.8631743534272,
        "alt_km": 1057.6936233276629,
        "timestamp": "2025-12-06T22:38:43.006465+00:00",
        "meta_object_name": "FENGYUN 1C DEB",
        "meta_object_id": "1999-025ARP",
        "meta_epoch": "2025-12-06T06:19:26.717952",
        "meta_mean_motion": 13.81269007,
        "meta_eccentricity": 0.0199025,
        "meta_inclination": 102.1809,
        "meta_ra_of_asc_node": 82.578,
        "meta_arg_of_pericenter": 297.517,
        "meta_mean_anomaly": 87.1177,
        "meta_ephemeris_type": 0,
        "meta_classification_type": "U",
        "meta_norad_cat_id": 30705,
        "meta_element_set_no": 999,
        "meta_rev_at_epoch": 93920,
        "meta_bstar": 0.0036447466,
        "meta_mean_motion_dot": 4.429e-05,
        "meta_mean_motion_ddot": 0,
        "tle_line1": "1 30705U 99025ARP 25340.26350368  .00004429  00000+0  36447-2 0  9991",
        "tle_line2": "2 30705 102.1809  82.5780 0199025 297.5170  87.1177 13.81269007939206"
      },
      "geometry": {
        "type": "Point",
        "coordinates": [
          -92.8631743534272,
          16.566029806201037
        ]
      }
    },
    {
      "type": "Feature",
      "properties": {
        "norad_id": 30706,
        "name": "FENGYUN 1C DEB",
        "group": "fengyun-1c-debris",
        "lat": -63.391437919696756,
        "lon": 36.762832779501686,
        "alt_km": 814.0530818397174,
        "timestamp": "2025-12-06T22:38:43.006475+00:00",
        "meta_object_name": "FENGYUN 1C DEB",
        "meta_object_id": "1999-025ARQ",
        "meta_epoch": "2025-12-05T23:37:02.361504",
        "meta_mean_motion": 14.26382833,
        "meta_eccentricity": 0.00261333,
        "meta_inclination": 99.0653,
        "meta_ra_of_asc_node": 234.3547,
        "meta_arg_of_pericenter": 148.0132,
        "meta_mean_anomaly": 212.264,
        "meta_ephemeris_type": 0,
        "meta_classification_type": "U",
        "meta_norad_cat_id": 30706,
        "meta_element_set_no": 999,
        "meta_rev_at_epoch": 97531,
        "meta_bstar": 0.0015158505,
        "meta_mean_motion_dot": 3.612e-05,
        "meta_mean_motion_ddot": 0,
        "tle_line1": "1 30706U 99025ARQ 25339.98405511  .00003612  00000+0  15159-2 0  9990",
        "tle_line2": "2 30706  99.0653 234.3547 0026133 148.0132 212.2640 14.26382833975314"
      },
      "geometry": {
        "type": "Point",
        "coordinates": [
          36.762832779501686,
          -63.391437919696756
        ]
      }
    },
    {
      "type": "Feature",
      "properties": {
        "norad_id": 30707,
        "name": "FENGYUN 1C DEB",
        "group": "fengyun-1c-debris",
        "lat": 67.56897906140796,
        "lon": -121.41925047343098,
        "alt_km": 777.8159735095769,
        "timestamp": "2025-12-06T22:38:43.006485+00:00",
        "meta_object_name": "FENGYUN 1C DEB",
        "meta_object_id": "1999-025ARR",
        "meta_epoch": "2025-12-06T16:00:16.184736",
        "meta_mean_motion": 14.26623519,
        "meta_eccentricity": 0.00282661,
        "meta_inclination": 99.413,
        "meta_ra_of_asc_node": 34.5891,
        "meta_arg_of_pericenter": 87.3726,
        "meta_mean_anomaly": 42.6124,
        "meta_ephemeris_type": 0,
        "meta_classification_type": "U",
        "meta_norad_cat_id": 30707,
        "meta_element_set_no": 999,
        "meta_rev_at_epoch": 96716,
        "meta_bstar": 0.0025652075,
        "meta_mean_motion_dot": 6.177e-05,
        "meta_mean_motion_ddot": 0,
        "tle_line1": "1 30707U 99025ARR 25340.66685399  .00006177  00000+0  25652-2 0  9990",
        "tle_line2": "2 30707  99.4130  34.5891 0028266  87.3726  42.6124 14.26623519967169"
      },
      "geometry": {
        "type": "Point",
        "coordinates": [
          -121.41925047343098,
          67.56897906140796
        ]
      }
    }
  ]
}